[{"OBJECT_NAME":"UTMN 2 (RS27S)","OBJECT_ID":"2023-091AP","EPOCH":"2026-03-09T23:09:07.917408","MEAN_MOTION":15.29495965,"ECCENTRICITY":0.00097379,"INCLINATION":97.5194,"RA_OF_ASC_NODE":134.949,"ARG_OF_PERICENTER":76.0788,"MEAN_ANOMALY":284.1534,"EPHEMERIS_TYPE":0,"CLASSIFICATION_TYPE":"U","NORAD_CAT_ID":57203,"ELEMENT_SET_NO":999,"REV_AT_EPOCH":14936,"BSTAR":0.00056135701,"MEAN_MOTION_DOT":0.00016013,"MEAN_MOTION_DDOT":0},{"OBJECT_NAME":"STARLINK-30703","OBJECT_ID":"2023-148V","EPOCH":"2026-03-09T04:08:09.879648","MEAN_MOTION":15.30189336,"ECCENTRICITY":9.894e-5,"INCLINATION":53.163,"RA_OF_ASC_NODE":16.5742,"ARG_OF_PERICENTER":92.0491,"MEAN_ANOMALY":268.0623,"EPHEMERIS_TYPE":0,"CLASSIFICATION_TYPE":"U","NORAD_CAT_ID":57954,"ELEMENT_SET_NO":999,"REV_AT_EPOCH":13848,"BSTAR":7.549971e-6,"MEAN_MOTION_DOT":-1.35e-6,"MEAN_MOTION_DDOT":0}]
